{"type": "FeatureCollection", "features": [ {"type": "Feature", "properties": {"norad_id": 41836, "name": "HIMAWARI-9", "group": "weather", "lat": 0.01444887876408559, "lon": -12.103969022366513, "alt_km": 35779.107175208745, "timestamp": "2025-12-03T08:58:45.641281+00:00", "meta": {"OBJECT_NAME": "HIMAWARI-9", "OBJECT_ID": "2016-064A", "EPOCH": "2025-12-02T23:00:58.348224", "MEAN_MOTION": 1.0027266, "ECCENTRICITY": 0.0002418, "INCLINATION": 0.0194, "RA_OF_ASC_NODE": 335.8786, "ARG_OF_PERICENTER": 323.9867, "MEAN_ANOMALY": 258.1785, "EPHEMERIS_TYPE": 0, "CLASSIFICATION_TYPE": "U", "NORAD_CAT_ID": 41836, "ELEMENT_SET_NO": 999, "REV_AT_EPOCH": 3324, "BSTAR": 0, "MEAN_MOTION_DOT": 0, "MEAN_MOTION_DDOT": 0}, "tle": {"line1": "1 41836U 16064A   25336.95900866  .00000000  00000+0  00000+0 0  9999", "line2": "2 41836   0.0194 335.8786 0002418 323.9867 258.1785  1.00272660 33243"}}, "geometry": {"type": "Point", "coordinates": [-12.103969022366513, 0.01444887876408559]}}, {"type": "Feature", "properties": {"norad_id": 41866, "name": "GOES 16", "group": "weather", "lat": 0.022443031964399757, "lon": 102.44079343463146, "alt_km": 35799.43784882701, "timestamp": "2025-12-03T08:58:45.641293+00:00", "meta": {"OBJECT_NAME": "GOES 16", "OBJECT_ID": "2016-071A", "EPOCH": "2025-12-03T04:00:38.641824", "MEAN_MOTION": 1.00270589, "ECCENTRICITY": 0.0003416, "INCLINATION": 0.0584, "RA_OF_ASC_NODE": 106.7677, "ARG_OF_PERICENTER": 149.8495, "MEAN_ANOMALY": 131.1342, "EPHEMERIS_TYPE": 0, "CLASSIFICATION_TYPE": "U", "NORAD_CAT_ID": 41866, "ELEMENT_SET_NO": 999, "REV_AT_EPOCH": 3313, "BSTAR": 0, "MEAN_MOTION_DOT": -7.2e-07, "MEAN_MOTION_DDOT": 0}, "tle": {"line1": "1 41866U 16071A   25337.16711391 -.00000072  00000+0  00000+0 0  9997", "line2": "2 41866   0.0584 106.7677 0003416 149.8495 131.1342  1.00270589 33139"}}, "geometry": {"type": "Point", "coordinates": [102.44079343463146, 0.022443031964399757]}}, {"type": "Feature", "properties": {"norad_id": 41882, "name": "FENGYUN 4A", "group": "weather", "lat": -1.690963981046172, "lon": -29.09624270867955, "alt_km": 35790.56114699926, "timestamp": "2025-12-03T08:58:45.641305+00:00", "meta": {"OBJECT_NAME": "FENGYUN 4A", "OBJECT_ID": "2016-077A", "EPOCH": "2025-12-02T22:56:06.313632", "MEAN_MOTION": 1.00278456, "ECCENTRICITY": 0.000502, "INCLINATION": 1.8224, "RA_OF_ASC_NODE": 82.4844, "ARG_OF_PERICENTER": 141.5772, "MEAN_ANOMALY": 315.7326, "EPHEMERIS_TYPE": 0, "CLASSIFICATION_TYPE": "U", "NORAD_CAT_ID": 41882, "ELEMENT_SET_NO": 999, "REV_AT_EPOCH": 3296, "BSTAR": 0, "MEAN_MOTION_DOT": -3.37e-06, "MEAN_MOTION_DDOT": 0}, "tle": {"line1": "1 41882U 16077A   25336.95562863 -.00000337  00000+0  00000+0 0  9999", "line2": "2 41882   1.8224  82.4844 0005020 141.5772 315.7326  1.00278456 32966"}}, "geometry": {"type": "Point", "coordinates": [-29.09624270867955, -1.690963981046172]}}, {"type": "Feature", "properties": {"norad_id": 41884, "name": "CYGFM05", "group": "weather", "lat": -28.814004533530913, "lon": 56.343359626247626, "alt_km": 432.52237534800133, "timestamp": "2025-12-03T08:58:45.641317+00:00", "meta": {"OBJECT_NAME": "CYGFM05", "OBJECT_ID": "2016-078A", "EPOCH": "2025-12-03T01:28:58.083168", "MEAN_MOTION": 15.47083635, "ECCENTRICITY": 0.000941, "INCLINATION": 34.958, "RA_OF_ASC_NODE": 110.3228, "ARG_OF_PERICENTER": 90.273, "MEAN_ANOMALY": 269.907, "EPHEMERIS_TYPE": 0, "CLASSIFICATION_TYPE": "U", "NORAD_CAT_ID": 41884, "ELEMENT_SET_NO": 999, "REV_AT_EPOCH": 49826, "BSTAR": 0.00049128, "MEAN_MOTION_DOT": 0.00025714, "MEAN_MOTION_DDOT": 0}, "tle": {"line1": "1 41884U 16078A   25337.06178337  .00025714  00000+0  49128-3 0  9997", "line2": "2 41884  34.9580 110.3228 0009410  90.2730 269.9070 15.47083635498262"}}, "geometry": {"type": "Point", "coordinates": [56.343359626247626, -28.814004533530913]}}, {"type": "Feature", "properties": {"norad_id": 41885, "name": "CYGFM04", "group": "weather", "lat": 34.907832223018886, "lon": 174.61966441827423, "alt_km": 405.95634698488993, "timestamp": "2025-12-03T08:58:45.641329+00:00", "meta": {"OBJECT_NAME": "CYGFM04", "OBJECT_ID": "2016-078B", "EPOCH": "2025-12-02T17:07:43.444992", "MEAN_MOTION": 15.49717157, "ECCENTRICITY": 0.0008454, "INCLINATION": 34.9339, "RA_OF_ASC_NODE": 87.6561, "ARG_OF_PERICENTER": 117.0889, "MEAN_ANOMALY": 243.0696, "EPHEMERIS_TYPE": 0, "CLASSIFICATION_TYPE": "U", "NORAD_CAT_ID": 41885, "ELEMENT_SET_NO": 999, "REV_AT_EPOCH": 49838, "BSTAR": 0.001424, "MEAN_MOTION_DOT": 0.00082424, "MEAN_MOTION_DDOT": 0}, "tle": {"line1": "1 41885U 16078B   25336.71369728  .00082424  00000+0  14240-2 0  9992", "line2": "2 41885  34.9339  87.6561 0008454 117.0889 243.0696 15.49717157498386"}}, "geometry": {"type": "Point", "coordinates": [174.61966441827423, 34.907832223018886]}}, {"type": "Feature", "properties": {"norad_id": 41886, "name": "CYGFM02", "group": "weather", "lat": 29.01790925335786, "lon": 134.3784940951071, "alt_km": 405.0451950739798, "timestamp": "2025-12-03T08:58:45.641340+00:00", "meta": {"OBJECT_NAME": "CYGFM02", "OBJECT_ID": "2016-078C", "EPOCH": "2025-12-02T17:17:02.334624", "MEAN_MOTION": 15.51057984, "ECCENTRICITY": 0.0010167, "INCLINATION": 34.943, "RA_OF_ASC_NODE": 86.0684, "ARG_OF_PERICENTER": 116.2207, "MEAN_ANOMALY": 243.9561, "EPHEMERIS_TYPE": 0, "CLASSIFICATION_TYPE": "U", "NORAD_CAT_ID": 41886, "ELEMENT_SET_NO": 999, "REV_AT_EPOCH": 49851, "BSTAR": 0.00048914, "MEAN_MOTION_DOT": 0.00029486, "MEAN_MOTION_DDOT": 0}, "tle": {"line1": "1 41886U 16078C   25336.72016591  .00029486  00000+0  48914-3 0  9996", "line2": "2 41886  34.9430  86.0684 0010167 116.2207 243.9561 15.51057984498510"}}, "geometry": {"type": "Point", "coordinates": [134.3784940951071, 29.01790925335786]}}, {"type": "Feature", "properties": {"norad_id": 41887, "name": "CYGFM01", "group": "weather", "lat": -17.93812588325495, "lon": 83.07515800752714, "alt_km": 427.18674838328934, "timestamp": "2025-12-03T08:58:45.641350+00:00", "meta": {"OBJECT_NAME": "CYGFM01", "OBJECT_ID": "2016-078D", "EPOCH": "2025-12-02T19:11:10.478112", "MEAN_MOTION": 15.47633981, "ECCENTRICITY": 0.0009076, "INCLINATION": 34.9409, "RA_OF_ASC_NODE": 114.4547, "ARG_OF_PERICENTER": 78.5446, "MEAN_ANOMALY": 281.6294, "EPHEMERIS_TYPE": 0, "CLASSIFICATION_TYPE": "U", "NORAD_CAT_ID": 41887, "ELEMENT_SET_NO": 999, "REV_AT_EPOCH": 49816, "BSTAR": 0.00047956, "MEAN_MOTION_DOT": 0.00025583, "MEAN_MOTION_DDOT": 0}, "tle": {"line1": "1 41887U 16078D   25336.79942683  .00025583  00000+0  47956-3 0  9993", "line2": "2 41887  34.9409 114.4547 0009076  78.5446 281.6294 15.47633981498168"}}, "geometry": {"type": "Point", "coordinates": [83.07515800752714, -17.93812588325495]}}, {"type": "Feature", "properties": {"norad_id": 41888, "name": "CYGFM08", "group": "weather", "lat": -13.713674624203769, "lon": 73.34335698331553, "alt_km": 425.69462315930195, "timestamp": "2025-12-03T08:58:45.641361+00:00", "meta": {"OBJECT_NAME": "CYGFM08", "OBJECT_ID": "2016-078E", "EPOCH": "2025-12-02T17:36:54.315072", "MEAN_MOTION": 15.48804218, "ECCENTRICITY": 0.0010648, "INCLINATION": 34.9446, "RA_OF_ASC_NODE": 97.9884, "ARG_OF_PERICENTER": 104.4395, "MEAN_ANOMALY": 255.7509, "EPHEMERIS_TYPE": 0, "CLASSIFICATION_TYPE": "U", "NORAD_CAT_ID": 41888, "ELEMENT_SET_NO": 999, "REV_AT_EPOCH": 49838, "BSTAR": 0.00048806, "MEAN_MOTION_DOT": 0.00027152, "MEAN_MOTION_DDOT": 0}, "tle": {"line1": "1 41888U 16078E   25336.73396198  .00027152  00000+0  48806-3 0  9991", "line2": "2 41888  34.9446  97.9884 0010648 104.4395 255.7509 15.48804218498387"}}, "geometry": {"type": "Point", "coordinates": [73.34335698331553, -13.713674624203769]}}, {"type": "Feature", "properties": {"norad_id": 41890, "name": "CYGFM07", "group": "weather", "lat": -28.377628199149367, "lon": 32.158218283151356, "alt_km": 426.1895963641882, "timestamp": "2025-12-03T08:58:45.641372+00:00", "meta": {"OBJECT_NAME": "CYGFM07", "OBJECT_ID": "2016-078G", "EPOCH": "2025-12-02T23:56:33.537696", "MEAN_MOTION": 15.49389577, "ECCENTRICITY": 0.0008921, "INCLINATION": 34.9471, "RA_OF_ASC_NODE": 85.2981, "ARG_OF_PERICENTER": 125.6184, "MEAN_ANOMALY": 234.537, "EPHEMERIS_TYPE": 0, "CLASSIFICATION_TYPE": "U", "NORAD_CAT_ID": 41890, "ELEMENT_SET_NO": 999, "REV_AT_EPOCH": 49844, "BSTAR": 0.00049894, "MEAN_MOTION_DOT": 0.00028323, "MEAN_MOTION_DDOT": 0}, "tle": {"line1": "1 41890U 16078G   25336.99761039  .00028323  00000+0  49894-3 0  9991", "line2": "2 41890  34.9471  85.2981 0008921 125.6184 234.5370 15.49389577498443"}}, "geometry": {"type": "Point", "coordinates": [32.158218283151356, -28.377628199149367]}}, {"type": "Feature", "properties": {"norad_id": 41891, "name": "CYGFM03", "group": "weather", "lat": 20.614748441798472, "lon": -127.8561508711306, "alt_km": 409.5255366770025, "timestamp": "2025-12-03T08:58:45.641392+00:00", "meta": {"OBJECT_NAME": "CYGFM03", "OBJECT_ID": "2016-078H", "EPOCH": "2025-12-03T00:38:16.433376", "MEAN_MOTION": 15.49294711, "ECCENTRICITY": 0.0008275, "INCLINATION": 34.9423, "RA_OF_ASC_NODE": 87.0198, "ARG_OF_PERICENTER": 112.9377, "MEAN_ANOMALY": 247.2218, "EPHEMERIS_TYPE": 0, "CLASSIFICATION_TYPE": "U", "NORAD_CAT_ID": 41891, "ELEMENT_SET_NO": 999, "REV_AT_EPOCH": 49842, "BSTAR": 0.00051236, "MEAN_MOTION_DOT": 0.00028985, "MEAN_MOTION_DDOT": 0}, "tle": {"line1": "1 41891U 16078H   25337.02657909  .00028985  00000+0  51236-3 0  9994", "line2": "2 41891  34.9423  87.0198 0008275 112.9377 247.2218 15.49294711498421"}}, "geometry": {"type": "Point", "coordinates": [-127.8561508711306, 20.614748441798472]}}]}